DIWATA-2B
1 43678U 18084H   23163.90064120  .00001607  00000+0  15865-3 0  9997
2 43678  98.0225 307.7835 0009791 167.9441 192.1513 14.93416309 48012